{
  "type": "FeatureCollection",
  "features": [
    {
      "type": "Feature",
      "properties": {
        "norad_id": 41866,
        "name": "GOES 16",
        "group": "weather",
        "lat": 0.06668319198132673,
        "lon": 159.9015534074585,
        "alt_km": 35789.69336219876,
        "timestamp": "2025-12-22T11:33:20.071889+00:00",
        "meta_object_name": "GOES 16",
        "meta_object_id": "2016-071A",
        "meta_epoch": "2025-12-21T16:07:23.443968",
        "meta_mean_motion": 1.0026909,
        "meta_eccentricity": 0.0003023,
        "meta_inclination": 0.0703,
        "meta_ra_of_asc_node": 104.1031,
        "meta_arg_of_pericenter": 158.6083,
        "meta_mean_anomaly": 324.955,
        "meta_ephemeris_type": 0,
        "meta_classification_type": "U",
        "meta_norad_cat_id": 41866,
        "meta_element_set_no": 999,
        "meta_rev_at_epoch": 3332,
        "meta_bstar": 0,
        "meta_mean_motion_dot": -6.8e-07,
        "meta_mean_motion_ddot": 0,
        "tle_line1": "1 41866U 16071A   25355.67179912 -.00000068  00000+0  00000+0 0  9995",
        "tle_line2": "2 41866   0.0703 104.1031 0003023 158.6083 324.9550  1.00269090 33322"
      },
      "geometry": {
        "type": "Point",
        "coordinates": [
          159.9015534074585,
          0.06668319198132673
        ]
      }
    },
    {
      "type": "Feature",
      "properties": {
        "norad_id": 41882,
        "name": "FENGYUN 4A",
        "group": "weather",
        "lat": -1.5064726365143317,
        "lon": 28.330104949073885,
        "alt_km": 35806.317106714,
        "timestamp": "2025-12-22T11:33:20.071901+00:00",
        "meta_object_name": "FENGYUN 4A",
        "meta_object_id": "2016-077A",
        "meta_epoch": "2025-12-19T13:51:06.687072",
        "meta_mean_motion": 1.00266581,
        "meta_eccentricity": 0.0004506,
        "meta_inclination": 1.866,
        "meta_ra_of_asc_node": 82.3247,
        "meta_arg_of_pericenter": 142.8816,
        "meta_mean_anomaly": 194.7423,
        "meta_ephemeris_type": 0,
        "meta_classification_type": "U",
        "meta_norad_cat_id": 41882,
        "meta_element_set_no": 999,
        "meta_rev_at_epoch": 3312,
        "meta_bstar": 0,
        "meta_mean_motion_dot": -3.34e-06,
        "meta_mean_motion_ddot": 0,
        "tle_line1": "1 41882U 16077A   25353.57716073 -.00000334  00000+0  00000+0 0  9997",
        "tle_line2": "2 41882   1.8660  82.3247 0004506 142.8816 194.7423  1.00266581 33125"
      },
      "geometry": {
        "type": "Point",
        "coordinates": [
          28.330104949073885,
          -1.5064726365143317
        ]
      }
    },
    {
      "type": "Feature",
      "properties": {
        "norad_id": 41884,
        "name": "CYGFM05",
        "group": "weather",
        "lat": 9.142006865035686,
        "lon": -3.204128569010173,
        "alt_km": 422.53707857918926,
        "timestamp": "2025-12-22T11:33:20.071912+00:00",
        "meta_object_name": "CYGFM05",
        "meta_object_id": "2016-078A",
        "meta_epoch": "2025-12-22T02:11:58.148736",
        "meta_mean_motion": 15.47963245,
        "meta_eccentricity": 0.0010822,
        "meta_inclination": 34.9606,
        "meta_ra_of_asc_node": 346.0272,
        "meta_arg_of_pericenter": 264.4221,
        "meta_mean_anomaly": 95.5267,
        "meta_ephemeris_type": 0,
        "meta_classification_type": "U",
        "meta_norad_cat_id": 41884,
        "meta_element_set_no": 999,
        "meta_rev_at_epoch": 50121,
        "meta_bstar": 0.00036929,
        "meta_mean_motion_dot": 0.00019918,
        "meta_mean_motion_ddot": 0,
        "tle_line1": "1 41884U 16078A   25356.09164524  .00019918  00000+0  36929-3 0  9998",
        "tle_line2": "2 41884  34.9606 346.0272 0010822 264.4221  95.5267 15.47963245501212"
      },
      "geometry": {
        "type": "Point",
        "coordinates": [
          -3.204128569010173,
          9.142006865035686
        ]
      }
    },
    {
      "type": "Feature",
      "properties": {
        "norad_id": 41885,
        "name": "CYGFM04",
        "group": "weather",
        "lat": -4.441988849085595,
        "lon": -48.41690323683223,
        "alt_km": 410.66888965509133,
        "timestamp": "2025-12-22T11:33:20.071922+00:00",
        "meta_object_name": "CYGFM04",
        "meta_object_id": "2016-078B",
        "meta_epoch": "2025-12-22T02:19:07.413312",
        "meta_mean_motion": 15.50734314,
        "meta_eccentricity": 0.0009604,
        "meta_inclination": 34.9356,
        "meta_ra_of_asc_node": 320.4992,
        "meta_arg_of_pericenter": 289.1008,
        "meta_mean_anomaly": 70.8674,
        "meta_ephemeris_type": 0,
        "meta_classification_type": "U",
        "meta_norad_cat_id": 41885,
        "meta_element_set_no": 999,
        "meta_rev_at_epoch": 50139,
        "meta_bstar": 0.00038809,
        "meta_mean_motion_dot": 0.00023092,
        "meta_mean_motion_ddot": 0,
        "tle_line1": "1 41885U 16078B   25356.09661358  .00023092  00000+0  38809-3 0  9993",
        "tle_line2": "2 41885  34.9356 320.4992 0009604 289.1008  70.8674 15.50734314501397"
      },
      "geometry": {
        "type": "Point",
        "coordinates": [
          -48.41690323683223,
          -4.441988849085595
        ]
      }
    },
    {
      "type": "Feature",
      "properties": {
        "norad_id": 41886,
        "name": "CYGFM02",
        "group": "weather",
        "lat": 27.727958123620052,
        "lon": 5.00255741268953,
        "alt_km": 408.9983956411852,
        "timestamp": "2025-12-22T11:33:20.071933+00:00",
        "meta_object_name": "CYGFM02",
        "meta_object_id": "2016-078C",
        "meta_epoch": "2025-12-22T02:03:38.941632",
        "meta_mean_motion": 15.52141078,
        "meta_eccentricity": 0.0011249,
        "meta_inclination": 34.9444,
        "meta_ra_of_asc_node": 318.7735,
        "meta_arg_of_pericenter": 290.1165,
        "meta_mean_anomaly": 69.8347,
        "meta_ephemeris_type": 0,
        "meta_classification_type": "U",
        "meta_norad_cat_id": 41886,
        "meta_element_set_no": 999,
        "meta_rev_at_epoch": 50152,
        "meta_bstar": 0.00039341,
        "meta_mean_motion_dot": 0.00024646,
        "meta_mean_motion_ddot": 0,
        "tle_line1": "1 41886U 16078C   25356.08586738  .00024646  00000+0  39341-3 0  9999",
        "tle_line2": "2 41886  34.9444 318.7735 0011249 290.1165  69.8347 15.52141078501526"
      },
      "geometry": {
        "type": "Point",
        "coordinates": [
          5.00255741268953,
          27.727958123620052
        ]
      }
    },
    {
      "type": "Feature",
      "properties": {
        "norad_id": 41887,
        "name": "CYGFM01",
        "group": "weather",
        "lat": 34.42204878526777,
        "lon": 64.70047819377791,
        "alt_km": 421.6853070040697,
        "timestamp": "2025-12-22T11:33:20.071944+00:00",
        "meta_object_name": "CYGFM01",
        "meta_object_id": "2016-078D",
        "meta_epoch": "2025-12-21T16:38:27.578400",
        "meta_mean_motion": 15.48536528,
        "meta_eccentricity": 0.0010513,
        "meta_inclination": 34.9438,
        "meta_ra_of_asc_node": 350.9164,
        "meta_arg_of_pericenter": 253.8093,
        "meta_mean_anomaly": 106.1471,
        "meta_ephemeris_type": 0,
        "meta_classification_type": "U",
        "meta_norad_cat_id": 41887,
        "meta_element_set_no": 999,
        "meta_rev_at_epoch": 50109,
        "meta_bstar": 0.00035104,
        "meta_mean_motion_dot": 0.00019313,
        "meta_mean_motion_ddot": 0,
        "tle_line1": "1 41887U 16078D   25355.69337475  .00019313  00000+0  35104-3 0  9996",
        "tle_line2": "2 41887  34.9438 350.9164 0010513 253.8093 106.1471 15.48536528501091"
      },
      "geometry": {
        "type": "Point",
        "coordinates": [
          64.70047819377791,
          34.42204878526777
        ]
      }
    },
    {
      "type": "Feature",
      "properties": {
        "norad_id": 41888,
        "name": "CYGFM08",
        "group": "weather",
        "lat": 4.505997678121927,
        "lon": 142.15735127695794,
        "alt_km": 418.53424762032773,
        "timestamp": "2025-12-22T11:33:20.071954+00:00",
        "meta_object_name": "CYGFM08",
        "meta_object_id": "2016-078E",
        "meta_epoch": "2025-12-22T03:05:09.720672",
        "meta_mean_motion": 15.4978379,
        "meta_eccentricity": 0.0011902,
        "meta_inclination": 34.9467,
        "meta_ra_of_asc_node": 330.9501,
        "meta_arg_of_pericenter": 280.1203,
        "meta_mean_anomaly": 79.8177,
        "meta_ephemeris_type": 0,
        "meta_classification_type": "U",
        "meta_norad_cat_id": 41888,
        "meta_element_set_no": 999,
        "meta_rev_at_epoch": 50139,
        "meta_bstar": 0.00038889,
        "meta_mean_motion_dot": 0.00022389,
        "meta_mean_motion_ddot": 0,
        "tle_line1": "1 41888U 16078E   25356.12858473  .00022389  00000+0  38889-3 0  9992",
        "tle_line2": "2 41888  34.9467 330.9501 0011902 280.1203  79.8177 15.49783790501394"
      },
      "geometry": {
        "type": "Point",
        "coordinates": [
          142.15735127695794,
          4.505997678121927
        ]
      }
    }
  ]
}